NORAD_CAT_ID,OBJECT_NAME,OBJECT_TYPE,EPOCH,MEAN_MOTION,ECCENTRICITY,INCLINATION,RA_OF_ASC_NODE,ARG_OF_PERICENTER,MEAN_ANOMALY,BSTAR,MEAN_MOTION_DOT,MEAN_MOTION_DDOT,TLE_LINE0,TLE_LINE1,TLE_LINE2,SEMIMAJOR_AXIS,PERIOD,APOGEE,PERIGEE,DECAYED
53746.0,STARLINK-4589,PAYLOAD,2023-11-15 16:06:34,15.08855304,0.0001225,53.2172,97.6048,90.1438,269.9694,-6.0504e-05,-1.251e-05,0.0,0 STARLINK-4589,1 53746U 22107AY  23319.67123082 -.00001251  00000-0 -60504-4 0  9994,2 53746  53.2172  97.6048 0001225  90.1438 269.9694 15.08855304 66248,6917.834,95.437,540.546,538.851,0.0
53746.0,STARLINK-4589,PAYLOAD,2023-11-16 09:35:49,15.08851873,0.0001037,53.2163,94.3337,85.7334,274.3776,-0.00011316,-2.089e-05,0.0,0 STARLINK-4589,1 53746U 22107AY  23320.39987522 -.00002089  00000-0 -11316-3 0  9998,2 53746  53.2163  94.3337 0001037  85.7334 274.3776 15.08851873 66359,6917.844,95.437,540.426,538.992,0.0
53746.0,STARLINK-4589,PAYLOAD,2023-11-17 09:26:36,15.08838174,8.67e-05,53.219,89.875,68.9416,291.1668,3.6421e-05,2.92e-06,0.0,0 STARLINK-4589,1 53746U 22107AY  23321.39348074  .00000292  00000-0  36421-4 0  9999,2 53746  53.2190  89.8750 0000867  68.9416 291.1668 15.08838174 66504,6917.886,95.438,540.351,539.151,0.0
53746.0,STARLINK-4589,PAYLOAD,2023-11-17 12:37:23,15.08837786,0.0001094,53.2179,89.2801,77.8413,282.2701,3.053e-05,1.98e-06,0.0,0 STARLINK-4589,1 53746U 22107AY  23321.52596091  .00000198  00000-0  30530-4 0  9998,2 53746  53.2179  89.2801 0001094  77.8413 282.2701 15.08837786 67307,6917.887,95.438,540.509,538.995,0.0
53746.0,STARLINK-4589,PAYLOAD,2023-11-17 15:48:09,15.08839217,0.0001068,53.2174,88.6846,76.3921,283.719,3.8602e-05,3.27e-06,0.0,0 STARLINK-4589,1 53746U 22107AY  23321.65843969  .00000327  00000-0  38602-4 0  9993,2 53746  53.2174  88.6846 0001068  76.3921 283.7190 15.08839217 67324,6917.883,95.438,540.487,539.009,0.0
53746.0,STARLINK-4589,PAYLOAD,2023-11-18 12:28:10,15.0883551,0.000138,53.2207,84.8224,96.8032,263.3117,5.9325e-05,6.56e-06,0.0,0 STARLINK-4589,1 53746U 22107AY  23322.51956390  .00000656  00000-0  59325-4 0  9992,2 53746  53.2207  84.8224 0001380  96.8032 263.3117 15.08835510 66678,6917.894,95.438,540.714,538.804,0.0
53746.0,STARLINK-4589,PAYLOAD,2023-11-19 13:54:20,15.08842016,0.0001428,53.2191,80.0646,100.6233,259.492,9.9242e-05,1.292e-05,0.0,0 STARLINK-4589,1 53746U 22107AY  23323.57939992  .00001292  00000-0  99242-4 0  9997,2 53746  53.2191  80.0646 0001428 100.6233 259.4920 15.08842016 67618,6917.874,95.437,540.727,538.751,0.0
53746.0,STARLINK-4589,PAYLOAD,2023-11-19 15:29:43,15.08844381,0.0001299,53.219,79.7667,94.2414,265.8727,0.00011766,1.585e-05,0.0,0 STARLINK-4589,1 53746U 22107AY  23323.64563807  .00001585  00000-0  11766-3 0  9992,2 53746  53.2190  79.7667 0001299  94.2414 265.8727 15.08844381 66847,6917.867,95.437,540.631,538.833,0.0
53746.0,STARLINK-4589,PAYLOAD,2023-11-20 01:02:02,15.08839405,0.0001313,53.2192,77.9821,88.2691,271.8452,8.1925e-05,1.016e-05,0.0,0 STARLINK-4589,1 53746U 22107AY  23324.04308195  .00001016  00000-0  81925-4 0  9998,2 53746  53.2192  77.9821 0001313  88.2691 271.8452 15.08839405 66908,6917.882,95.438,540.656,538.839,0.0
53746.0,STARLINK-4589,PAYLOAD,2023-11-20 13:45:07,15.08842932,0.0001182,53.2186,75.6013,90.4933,269.6195,7.242e-05,8.65e-06,0.0,0 STARLINK-4589,1 53746U 22107AY  23324.57300008  .00000865  00000-0  72420-4 0  9992,2 53746  53.2186  75.6013 0001182  90.4933 269.6195 15.08842932 67760,6917.871,95.437,540.554,538.919,0.0
53746.0,STARLINK-4589,PAYLOAD,2023-11-20 16:55:53,15.08847784,0.0001279,53.2192,75.0071,91.4526,268.6613,0.00011786,1.589e-05,0.0,0 STARLINK-4589,1 53746U 22107AY  23324.70547584  .00001589  00000-0  11786-3 0  9990,2 53746  53.2192  75.0071 0001279  91.4526 268.6613 15.08847784 67002,6917.857,95.437,540.606,538.837,0.0
53746.0,STARLINK-4589,PAYLOAD,2023-11-21 00:52:49,15.08843611,0.0001281,53.2187,73.5207,81.2822,278.8315,-1.6996e-05,-5.58e-06,0.0,0 STARLINK-4589,1 53746U 22107AY  23325.03668325 -.00000558  00000-0 -16996-4 0  9990,2 53746  53.2187  73.5207 0001281  81.2822 278.8315 15.08843611 67051,6917.869,95.437,540.621,538.848,0.0
53746.0,STARLINK-4589,PAYLOAD,2023-11-21 13:35:54,15.08846719,0.0001344,53.2183,71.1433,79.8813,280.2331,1.2599e-05,-8.7e-07,0.0,0 STARLINK-4589,1 53746U 22107AY  23325.56660003 -.00000087  00000-0  12599-4 0  9994,2 53746  53.2183  71.1433 0001344  79.8813 280.2331 15.08846719 67917,6917.86,95.437,540.655,538.795,0.0
53746.0,STARLINK-4589,PAYLOAD,2023-11-21 16:46:39,15.08853296,0.0001328,53.2186,70.5478,81.7889,278.3254,7.1714e-05,8.54e-06,0.0,0 STARLINK-4589,1 53746U 22107AY  23325.69907349  .00000854  00000-0  71714-4 0  9990,2 53746  53.2186  70.5478 0001328  81.7889 278.3254 15.08853296 67155,6917.84,95.437,540.623,538.786,0.0
53746.0,STARLINK-4589,PAYLOAD,2023-11-22 11:51:17,15.08845387,0.0001422,53.2192,66.9789,78.5287,281.5865,9.0834e-05,1.158e-05,0.0,0 STARLINK-4589,1 53746U 22107AY  23326.49395570  .00001158  00000-0  90834-4 0  9998,2 53746  53.2192  66.9789 0001422  78.5287 281.5865 15.08845387 67276,6917.864,95.437,540.713,538.745,0.0
53746.0,STARLINK-4589,PAYLOAD,2023-11-22 13:26:40,15.08855539,0.0001463,53.2198,66.6811,80.9151,279.2006,8.5185e-05,1.069e-05,0.0,0 STARLINK-4589,1 53746U 22107AY  23326.56018965  .00001069  00000-0  85185-4 0  9990,2 53746  53.2198  66.6811 0001463  80.9151 279.2006 15.08855539 68066,6917.833,95.437,540.71,538.686,0.0
53746.0,STARLINK-4589,PAYLOAD,2023-11-23 11:42:05,15.08839068,0.0001476,53.2184,62.5189,101.067,259.0489,1.2064e-05,-9.6e-07,0.0,0 STARLINK-4589,1 53746U 22107AY  23327.48755968 -.00000096  00000-0  12064-4 0  9999,2 53746  53.2184  62.5189 0001476 101.0670 259.0489 15.08839068 67428,6917.883,95.438,540.769,538.727,0.0
53746.0,STARLINK-4589,PAYLOAD,2023-11-23 13:17:28,15.08839081,0.0001538,53.219,62.2188,108.8807,251.2352,-2.7322e-05,-7.23e-06,0.0,0 STARLINK-4589,1 53746U 22107AY  23327.55379900 -.00000723  00000-0 -27322-4 0  9996,2 53746  53.2190  62.2188 0001538 108.8807 251.2352 15.08839081 68213,6917.883,95.438,540.812,538.684,0.0
53746.0,STARLINK-4589,PAYLOAD,2023-11-23 16:28:14,15.0883946,0.0001519,53.219,61.6237,107.5116,252.6042,-1.7355e-05,-5.64e-06,0.0,0 STARLINK-4589,1 53746U 22107AY  23327.68627885 -.00000564  00000-0 -17355-4 0  9996,2 53746  53.2190  61.6237 0001519 107.5116 252.6042 15.08839460 68233,6917.882,95.438,540.798,538.696,0.0
53746.0,STARLINK-4589,PAYLOAD,2023-11-24 11:32:53,15.08835347,0.0001453,53.2193,58.0533,92.8693,267.2465,-0.00013766,-2.478e-05,0.0,0 STARLINK-4589,1 53746U 22107AY  23328.48117256 -.00002478  00000-0 -13766-3 0  9998,2 53746  53.2193  58.0533 0001453  92.8693 267.2465 15.08835347 67575,6917.895,95.438,540.765,538.754,0.0
53746.0,STARLINK-4589,PAYLOAD,2023-11-24 13:08:16,15.08836731,0.000149,53.2195,57.7557,94.4308,265.6855,-0.00011852,-2.174e-05,0.0,0 STARLINK-4589,1 53746U 22107AY  23328.54741131 -.00002174  00000-0 -11852-3 0  9997,2 53746  53.2195  57.7557 0001490  94.4308 265.6855 15.08836731 68362,6917.89,95.438,540.786,538.725,0.0
53746.0,STARLINK-4589,PAYLOAD,2023-11-24 17:54:25,15.08843383,0.0001472,53.2197,56.8663,93.9777,266.1383,-5.0883e-05,-1.098e-05,0.0,0 STARLINK-4589,1 53746U 22107AY  23328.74612425 -.00001098  00000-0 -50883-4 0  9994,2 53746  53.2197  56.8663 0001472  93.9777 266.1383 15.08843383 67616,6917.87,95.437,540.753,538.717,0.0
53746.0,STARLINK-4589,PAYLOAD,2023-11-25 12:59:02,15.08849283,0.0001641,53.2197,53.2972,100.5857,259.532,0.00025572,3.785e-05,0.0,0 STARLINK-4589,1 53746U 22107AY  23329.54099754  .00003785  00000-0  25572-3 0  9996,2 53746  53.2197  53.2972 0001641 100.5857 259.5320 15.08849283 68514,6917.852,95.437,540.852,538.582,0.0
53746.0,STARLINK-4589,PAYLOAD,2023-11-25 16:09:48,15.08853074,0.0001524,53.2195,52.7008,95.4294,264.6872,0.0002918,4.361e-05,0.0,0 STARLINK-4589,1 53746U 22107AY  23329.67347357  .00004361  00000-0  29180-3 0  9995,2 53746  53.2195  52.7008 0001524  95.4294 264.6872 15.08853074 68537,6917.84,95.437,540.76,538.651,0.0
53746.0,STARLINK-4589,PAYLOAD,2023-11-26 11:14:25,15.08850418,0.0001778,53.2195,49.1332,103.8006,256.3184,0.00019537,2.823e-05,0.0,0 STARLINK-4589,1 53746U 22107AY  23330.46835597  .00002823  00000-0  19537-3 0  9998,2 53746  53.2195  49.1332 0001778 103.8006 256.3184 15.08850418 67872,6917.849,95.437,540.944,538.484,0.0
53746.0,STARLINK-4589,PAYLOAD,2023-11-26 12:49:48,15.08863195,0.0001301,53.2182,48.8409,95.5159,264.5982,0.00024293,3.583e-05,0.0,0 STARLINK-4589,1 53746U 22107AY  23330.53458677  .00003583  00000-0  24293-3 0  9995,2 53746  53.2182  48.8409 0001301  95.5159 264.5982 15.08863195 68668,6917.809,95.436,540.574,538.774,0.0
53746.0,STARLINK-4589,PAYLOAD,2023-11-26 14:25:11,15.08863519,0.0001447,53.2199,48.5423,91.7079,268.4079,0.00023855,3.513e-05,0.0,0 STARLINK-4589,1 53746U 22107AY  23330.60082604  .00003513  00000-0  23855-3 0  9992,2 53746  53.2199  48.5423 0001447  91.7079 268.4079 15.08863519 67893,6917.809,95.436,540.675,538.672,0.0
53746.0,STARLINK-4589,PAYLOAD,2023-11-27 04:43:42,15.08829976,0.0002461,53.2186,45.8726,65.2819,294.843,3.8608e-07,-2.82e-06,0.0,0 STARLINK-4589,1 53746U 22107AY  23331.19701804 -.00000282  00000-0  38608-6 0  9993,2 53746  53.2186  45.8726 0002461  65.2819 294.8430 15.08829976 67983,6917.911,95.438,541.479,538.074,0.0
53746.0,STARLINK-4589,PAYLOAD,2023-11-27 11:05:15,15.08826622,0.000146,53.2197,44.6726,97.538,262.5778,-0.00026463,-4.495e-05,0.0,0 STARLINK-4589,1 53746U 22107AY  23331.46198874 -.00004495  00000-0 -26463-3 0  9994,2 53746  53.2197  44.6726 0001460  97.5380 262.5778 15.08826622 68029,6917.921,95.438,540.796,538.776,0.0
53746.0,STARLINK-4589,PAYLOAD,2023-11-27 12:40:39,15.08823799,0.0001459,53.2195,44.3767,77.4406,282.675,-0.00026235,-4.459e-05,0.0,0 STARLINK-4589,1 53746U 22107AY  23331.52823191 -.00004459  00000-0 -26235-3 0  9995,2 53746  53.2195  44.3767 0001459  77.4406 282.6750 15.08823799 68815,6917.93,95.439,540.804,538.786,0.0
